start=new Date('2021-08-30T00:00:00.000Z').valueOf();
sats=[{"OBJECT_NAME":"STARLINK-1728","GP_ID":"183701238","TLE_LINE2":"2 46582  53.0555  16.5415 0001704 116.3347 243.7817 15.06405974 50669","EPOCH":"2021-08-29T20:14:05.515296","TLE_LINE1":"1 46582U 20070BC  21241.84311939  .00003390  00000-0  24633-3 0  9998","EPHEMERIS_TYPE":"0","MEAN_ANOMALY":"243.7817","MEAN_MOTION_DOT":"0.00003390","OBJECT_TYPE":"PAYLOAD","CENTER_NAME":"EARTH","CLASSIFICATION_TYPE":"U","ECCENTRICITY":"0.00017040","MEAN_ELEMENT_THEORY":"SGP4","REV_AT_EPOCH":"5066","SEMIMAJOR_AXIS":"6925.330","LAUNCH_DATE":"2020-10-06","REF_FRAME":"TEME","NORAD_CAT_ID":"46582","TIME_SYSTEM":"UTC","PERIAPSIS":"546.015","RCS_SIZE":"LARGE","APOAPSIS":"548.375","INCLINATION":"53.0555","ARG_OF_PERICENTER":"116.3347","BSTAR":"0.00024633000000","DECAY_DATE":null,"FILE":"3105271","MEAN_MOTION_DDOT":"0.0000000000000","COUNTRY_CODE":"US","MEAN_MOTION":"15.06405974","PERIOD":"95.592","SITE":"AFETR","ELEMENT_SET_NO":"999","RA_OF_ASC_NODE":"16.5415","OBJECT_ID":"2020-070BC"},{"SITE":"AFETR","PERIOD":"95.592","MEAN_MOTION":"15.06399204","COUNTRY_CODE":"US","RA_OF_ASC_NODE":"36.9438","OBJECT_ID":"2020-070BD","ELEMENT_SET_NO":"999","ARG_OF_PERICENTER":"103.6393","INCLINATION":"53.0561","RCS_SIZE":"LARGE","APOAPSIS":"548.433","MEAN_MOTION_DDOT":"0.0000000000000","FILE":"3105271","BSTAR":"0.00002319500000","DECAY_DATE":null,"ECCENTRICITY":"0.00017570","CENTER_NAME":"EARTH","CLASSIFICATION_TYPE":"U","OBJECT_TYPE":"PAYLOAD","NORAD_CAT_ID":"46583","TIME_SYSTEM":"UTC","PERIAPSIS":"545.999","REF_FRAME":"TEME","SEMIMAJOR_AXIS":"6925.351","LAUNCH_DATE":"2020-10-06","MEAN_ELEMENT_THEORY":"SGP4","REV_AT_EPOCH":"5036","EPOCH":"2021-08-29T18:05:24.959040","TLE_LINE2":"2 46583  53.0561  36.9438 0001757 103.6393 256.4791 15.06399204 50363","GP_ID":"183699986","OBJECT_NAME":"STARLINK-1729","MEAN_MOTION_DOT":"0.00000064","MEAN_ANOMALY":"256.4791","EPHEMERIS_TYPE":"0","TLE_LINE1":"1 46583U 20070BD  21241.75376110  .00000064  00000-0  23195-4 0  9999"},{"PERIAPSIS":"546.372","NORAD_CAT_ID":"46584","TIME_SYSTEM":"UTC","REF_FRAME":"TEME","LAUNCH_DATE":"2020-10-06","SEMIMAJOR_AXIS":"6925.382","MEAN_ELEMENT_THEORY":"SGP4","REV_AT_EPOCH":"5066","ECCENTRICITY":"0.00012640","CLASSIFICATION_TYPE":"U","CENTER_NAME":"EARTH","OBJECT_TYPE":"PAYLOAD","MEAN_MOTION_DOT":"0.00001844","MEAN_ANOMALY":"238.7678","EPHEMERIS_TYPE":"0","TLE_LINE1":"1 46584U 20070BE  21241.84038594  .00001844  00000-0  14272-3 0  9993","EPOCH":"2021-08-29T20:10:09.345216","TLE_LINE2":"2 46584  53.0545  16.5480 0001264 121.3435 238.7678 15.06388939 50667","GP_ID":"183699736","OBJECT_NAME":"STARLINK-1732","RA_OF_ASC_NODE":"16.5480","OBJECT_ID":"2020-070BE","ELEMENT_SET_NO":"999","SITE":"AFETR","PERIOD":"95.593","MEAN_MOTION":"15.06388939","COUNTRY_CODE":"US","MEAN_MOTION_DDOT":"0.0000000000000","FILE":"3105271","DECAY_DATE":null,"BSTAR":"0.00014272000000","ARG_OF_PERICENTER":"121.3435","INCLINATION":"53.0545","RCS_SIZE":"LARGE","APOAPSIS":"548.123"},{"CLASSIFICATION_TYPE":"U","CENTER_NAME":"EARTH","OBJECT_TYPE":"PAYLOAD","ECCENTRICITY":"0.00011710","LAUNCH_DATE":"2020-10-06","SEMIMAJOR_AXIS":"6925.315","REV_AT_EPOCH":"5064","MEAN_ELEMENT_THEORY":"SGP4","PERIAPSIS":"546.369","NORAD_CAT_ID":"46585","TIME_SYSTEM":"UTC","REF_FRAME":"TEME","OBJECT_NAME":"STARLINK-1736","TLE_LINE2":"2 46585  53.0567  17.0730 0001171 114.9298 245.1812 15.06410868 50645","EPOCH":"2021-08-29T17:25:35.589504","GP_ID":"183700988","TLE_LINE1":"1 46585U 20070BF  21241.72610636  .00000552  00000-0  55922-4 0  9997","MEAN_ANOMALY":"245.1812","MEAN_MOTION_DOT":"0.00000552","EPHEMERIS_TYPE":"0","PERIOD":"95.591","COUNTRY_CODE":"US","MEAN_MOTION":"15.06410868","SITE":"AFETR","OBJECT_ID":"2020-070BF","RA_OF_ASC_NODE":"17.0730","ELEMENT_SET_NO":"999","INCLINATION":"53.0567","RCS_SIZE":"LARGE","APOAPSIS":"547.991","ARG_OF_PERICENTER":"114.9298","FILE":"3105271","DECAY_DATE":null,"BSTAR":"0.00005592200000","MEAN_MOTION_DDOT":"0.0000000000000"},{"ARG_OF_PERICENTER":"113.2332","RCS_SIZE":"LARGE","APOAPSIS":"548.161","INCLINATION":"53.0565","MEAN_MOTION_DDOT":"0.0000000000000","BSTAR":"0.00003001000000","DECAY_DATE":null,"FILE":"3105271","SITE":"AFETR","MEAN_MOTION":"15.06395262","COUNTRY_CODE":"US","PERIOD":"95.592","ELEMENT_SET_NO":"999","OBJECT_ID":"2020-070BG","RA_OF_ASC_NODE":"16.5175","EPOCH":"2021-08-29T20:20:45.877344","TLE_LINE2":"2 46586  53.0565  16.5175 0001347 113.2332 246.8799 15.06395262 50661","GP_ID":"183700738","OBJECT_NAME":"STARLINK-1737","EPHEMERIS_TYPE":"0","MEAN_ANOMALY":"246.8799","MEAN_MOTION_DOT":"0.00000166","TLE_LINE1":"1 46586U 20070BG  21241.84775321  .00000166  00000-0  30010-4 0  9996","ECCENTRICITY":"0.00013470","OBJECT_TYPE":"PAYLOAD","CENTER_NAME":"EARTH","CLASSIFICATION_TYPE":"U","REF_FRAME":"TEME","NORAD_CAT_ID":"46586","TIME_SYSTEM":"UTC","PERIAPSIS":"546.295","REV_AT_EPOCH":"5066","MEAN_ELEMENT_THEORY":"SGP4","SEMIMAJOR_AXIS":"6925.363","LAUNCH_DATE":"2020-10-06"},{"OBJECT_ID":"2020-070BJ","RA_OF_ASC_NODE":"17.1927","ELEMENT_SET_NO":"999","SITE":"AFETR","PERIOD":"95.592","COUNTRY_CODE":"US","MEAN_MOTION":"15.06405223","MEAN_MOTION_DDOT":"0.0000000000000","FILE":"3105271","BSTAR":"0.00013937000000","DECAY_DATE":null,"ARG_OF_PERICENTER":"114.9579","INCLINATION":"53.0544","RCS_SIZE":"LARGE","APOAPSIS":"548.075","NORAD_CAT_ID":"46588","TIME_SYSTEM":"UTC","PERIAPSIS":"546.320","REF_FRAME":"TEME","SEMIMAJOR_AXIS":"6925.333","LAUNCH_DATE":"2020-10-06","MEAN_ELEMENT_THEORY":"SGP4","REV_AT_EPOCH":"5064","ECCENTRICITY":"0.00012670","CENTER_NAME":"EARTH","CLASSIFICATION_TYPE":"U","OBJECT_TYPE":"PAYLOAD","MEAN_ANOMALY":"245.1541","MEAN_MOTION_DOT":"0.00001795","EPHEMERIS_TYPE":"0","TLE_LINE1":"1 46588U 20070BJ  21241.69662340  .00001795  00000-0  13937-3 0  9994","EPOCH":"2021-08-29T16:43:08.261760","TLE_LINE2":"2 46588  53.0544  17.1927 0001267 114.9579 245.1541 15.06405223 50648","GP_ID":"183699486","OBJECT_NAME":"STARLINK-1746"},{"TLE_LINE2":"2 46589  53.0568  17.2235 0002184 139.1376 220.9777 15.06398868 50638","GP_ID":"183700237","EPOCH":"2021-08-29T16:32:31.587072","OBJECT_NAME":"STARLINK-1749","MEAN_ANOMALY":"220.9777","MEAN_MOTION_DOT":"0.00001003","EPHEMERIS_TYPE":"0","TLE_LINE1":"1 46589U 20070BK  21241.68925448  .00001003  00000-0  86274-4 0  9992","ECCENTRICITY":"0.00021840","CLASSIFICATION_TYPE":"U","CENTER_NAME":"EARTH","OBJECT_TYPE":"PAYLOAD","PERIAPSIS":"545.705","NORAD_CAT_ID":"46589","TIME_SYSTEM":"UTC","REF_FRAME":"TEME","LAUNCH_DATE":"2020-10-06","SEMIMAJOR_AXIS":"6925.352","REV_AT_EPOCH":"5063","MEAN_ELEMENT_THEORY":"SGP4","ARG_OF_PERICENTER":"139.1376","INCLINATION":"53.0568","RCS_SIZE":"LARGE","APOAPSIS":"548.730","MEAN_MOTION_DDOT":"0.0000000000000","FILE":"3105271","DECAY_DATE":null,"BSTAR":"0.00008627400000","SITE":"AFETR","PERIOD":"95.592","MEAN_MOTION":"15.06398868","COUNTRY_CODE":"US","OBJECT_ID":"2020-070BK","RA_OF_ASC_NODE":"17.2235","ELEMENT_SET_NO":"999"},{"OBJECT_TYPE":"PAYLOAD","CENTER_NAME":"EARTH","CLASSIFICATION_TYPE":"U","ECCENTRICITY":"0.00012680","MEAN_ELEMENT_THEORY":"SGP4","REV_AT_EPOCH":"5171","SEMIMAJOR_AXIS":"6925.331","LAUNCH_DATE":"2020-10-06","REF_FRAME":"TEME","NORAD_CAT_ID":"46590","TIME_SYSTEM":"UTC","PERIAPSIS":"546.318","OBJECT_NAME":"STARLINK-1754","TLE_LINE2":"2 46590  53.0311 301.5424 0001268  67.9891 292.1233 15.06405648 51710","GP_ID":"183700488","EPOCH":"2021-08-29T20:43:58.603008","TLE_LINE1":"1 46590U 20070BL  21241.86387272  .00001368  00000-0  11067-3 0  9992","EPHEMERIS_TYPE":"0","MEAN_ANOMALY":"292.1233","MEAN_MOTION_DOT":"0.00001368","MEAN_MOTION":"15.06405648","COUNTRY_CODE":"US","PERIOD":"95.592","SITE":"AFETR","ELEMENT_SET_NO":"999","OBJECT_ID":"2020-070BL","RA_OF_ASC_NODE":"301.5424","RCS_SIZE":"LARGE","APOAPSIS":"548.074","INCLINATION":"53.0311","ARG_OF_PERICENTER":"67.9891","BSTAR":"0.00011067000000","DECAY_DATE":null,"FILE":"3105271","MEAN_MOTION_DDOT":"0.0000000000000"},{"OBJECT_NAME":"STARLINK-1755","TLE_LINE2":"2 46591  53.0565  16.9832 0001381 110.0326 250.0811 15.06417377 49704","EPOCH":"2021-08-29T17:52:08.328576","GP_ID":"183701239","TLE_LINE1":"1 46591U 20070BM  21241.74454084  .00003106  00000-0  22721-3 0  9997","MEAN_ANOMALY":"250.0811","MEAN_MOTION_DOT":"0.00003106","EPHEMERIS_TYPE":"0","CENTER_NAME":"EARTH","CLASSIFICATION_TYPE":"U","OBJECT_TYPE":"PAYLOAD","ECCENTRICITY":"0.00013810","SEMIMAJOR_AXIS":"6925.295","LAUNCH_DATE":"2020-10-06","MEAN_ELEMENT_THEORY":"SGP4","REV_AT_EPOCH":"4970","NORAD_CAT_ID":"46591","TIME_SYSTEM":"UTC","PERIAPSIS":"546.204","REF_FRAME":"TEME","INCLINATION":"53.0565","RCS_SIZE":"LARGE","APOAPSIS":"548.117","ARG_OF_PERICENTER":"110.0326","FILE":"3105271","BSTAR":"0.00022721000000","DECAY_DATE":null,"MEAN_MOTION_DDOT":"0.0000000000000","PERIOD":"95.591","MEAN_MOTION":"15.06417377","COUNTRY_CODE":"US","SITE":"AFETR","OBJECT_ID":"2020-070BM","RA_OF_ASC_NODE":"16.9832","ELEMENT_SET_NO":"999"},{"MEAN_ANOMALY":"279.8423","MEAN_MOTION_DOT":"0.00000061","EPHEMERIS_TYPE":"0","TLE_LINE1":"1 46671U 20073B   21241.88273644  .00000061  00000-0  23005-4 0  9999","TLE_LINE2":"2 46671  53.0542 106.3607 0001957  80.2787 279.8423 15.06412880 47946","GP_ID":"183700496","EPOCH":"2021-08-29T21:11:08.428416","OBJECT_NAME":"STARLINK-1715","NORAD_CAT_ID":"46671","TIME_SYSTEM":"UTC","PERIAPSIS":"545.819","REF_FRAME":"TEME","SEMIMAJOR_AXIS":"6925.309","LAUNCH_DATE":"2020-10-18","MEAN_ELEMENT_THEORY":"SGP4","REV_AT_EPOCH":"4794","ECCENTRICITY":"0.00019570","CENTER_NAME":"EARTH","CLASSIFICATION_TYPE":"U","OBJECT_TYPE":"PAYLOAD","MEAN_MOTION_DDOT":"0.0000000000000","FILE":"3105271","BSTAR":"0.00002300500000","DECAY_DATE":null,"ARG_OF_PERICENTER":"80.2787","INCLINATION":"53.0542","RCS_SIZE":"LARGE","APOAPSIS":"548.529","OBJECT_ID":"2020-073B","RA_OF_ASC_NODE":"106.3607","ELEMENT_SET_NO":"999","SITE":"AFETR","PERIOD":"95.591","MEAN_MOTION":"15.06412880","COUNTRY_CODE":"US"}];
